COSMOS 2433 (720)       
1 32275U 07052A   25137.80035076 -.00000024  00000+0  00000+0 0  9995
2 32275  65.7910 329.2103 0001044 200.3527 159.6648  2.13104118136636
COSMOS 2432 (719)       
1 32276U 07052B   25137.81109186 -.00000024  00000+0  00000+0 0  9991
2 32276  65.8065 329.3301 0008845 337.4179 336.0392  2.13103226136659
COSMOS 2434 (721)       
1 32393U 07065A   25138.42012095  .00000040  00000+0  00000+0 0  9992
2 32393  64.3140 205.2352 0000895  48.1397 318.8300  2.13101379135361
COSMOS 2436 (723)       
1 32395U 07065C   25138.23841294  .00000041  00000+0  00000+0 0  9995
2 32395  64.3226 205.3094 0016587 356.6178   4.9412  2.13100269135310
COSMOS 2456 (730)       
1 36111U 09070A   25138.46620058  .00000030  00000+0  00000+0 0  9999
2 36111  64.7831  84.4615 0005718 317.3191 240.7261  2.13103686120013
COSMOS 2457 (733)       
1 36112U 09070B   25138.28696748  .00000029  00000+0  00000+0 0  9997
2 36112  64.7679  84.3193 0001907 164.5061  27.0938  2.13101162120012
COSMOS 2460 (732)       
1 36402U 10007C   25138.23463154 -.00000021  00000+0  00000+0 0  9992
2 36402  65.6409 327.8017 0002196  73.9781  73.8738  2.13106242118319
COSMOS 2476 (744)       
1 37867U 11064A   25138.55861153  .00000034  00000+0  00000+0 0  9991
2 37867  65.0493  86.2168 0023428 241.2738 297.7633  2.13101510105352
COSMOS 2477 (745)       
1 37868U 11064B   25138.23829093  .00000033  00000+0  00000+0 0  9993
2 37868  65.0560  86.3034 0020621 242.9202 230.2041  2.13103016105344
COSMOS 2475 (743)       
1 37869U 11064C   25138.40514117  .00000034  00000+0  00000+0 0  9992
2 37869  65.0630  86.3156 0026222 255.8034 302.1943  2.13101821105350
COSMOS 2485 (747)       
1 39155U 13019A   25138.26453883  .00000035  00000+0  00000+0 0  9991
2 39155  65.2035  86.8800 0023734 237.1115 122.6460  2.13104543 93865
COSMOS 2492 (754)       
1 39620U 14012A   25133.99831591 -.00000041  00000+0  00000+0 0  9991
2 39620  65.5223 327.4729 0011618 330.1915  29.7643  2.13103330 86739
COSMOS 2500 (755)       
1 40001U 14032A   25137.92731790 -.00000022  00000+0  00000+0 0  9994
2 40001  65.4566 327.1188 0005824 183.5360 176.4788  2.13105989 85039
COSMOS 2501 (702K)      
1 40315U 14075A   25138.18437798  .00000042  00000+0  00000+0 0  9990
2 40315  63.6140 204.0494 0021313 210.1958 149.7585  2.13101413 81435
COSMOS 2514 (751)       
1 41330U 16008A   25138.16792778 -.00000021  00000+0  00000+0 0  9994
2 41330  65.2486 326.5353 0009430 199.5619 160.4201  2.13102641 72202
COSMOS 2522 (752)       
1 42939U 17055A   25138.00693187  .00000041  00000+0  00000+0 0  9991
2 42939  64.0756 205.3387 0009583 238.4168 121.5670  2.13101841 59559
COSMOS 2527 (756)       
1 43508U 18053A   25138.43612391  .00000036  00000+0  00000+0 0  9992
2 43508  65.3624  87.0961 0008360 245.3322 114.5669  2.13102192 53862
COSMOS 2529 (757)       
1 43687U 18086A   25138.06505022  .00000040  00000+0  00000+0 0  9992
2 43687  64.2915 205.9398 0010802 257.3336 102.6225  2.13102027 50868
COSMOS 2534 (758)       
1 44299U 19030A   25138.41786632  .00000040  00000+0  00000+0 0  9999
2 44299  64.3647 205.9128 0012439 278.0883 126.8688  2.13102362 46517
COSMOS 2544 (759)       
1 44850U 19088A   25138.38048836  .00000035  00000+0  00000+0 0  9992
2 44850  65.3496  86.9286 0014344 262.0700  97.7534  2.13101933 42305
COSMOS 2545 (760)       
1 45358U 20018A   25138.10780025 -.00000023  00000+0  00000+0 0  9992
2 45358  64.5863 326.2743 0007261 238.8789 121.0674  2.13102542 40248
COSMOS 2547 (705K)      
1 46805U 20075A   25138.29390996  .00000040  00000+0  00000+0 0  9995
2 46805  64.5948 205.6582 0008418 238.8453 121.1485  2.13100370 35493
COSMOS 2557 (706K)      
1 52984U 22075A   25138.46075986 -.00000024  00000+0  00000+0 0  9993
2 52984  64.5217 328.3615 0010494 281.7130  78.1897  2.13102094 22302
COSMOS 2559 (707K)      
1 54031U 22130A   25137.81014863 -.00000027  00000+0  00000+0 0  9998
2 54031  64.4948 328.4808 0011250 175.9531 184.0763  2.13101489 20250
COSMOS 2564 (761)       
1 54377U 22161A   25138.59368898  .00000040  00000+0  00000+0 0  9995
2 54377  64.7365 205.8133 0011030 221.5970 138.3945  2.13102022 19222
COSMOS 2569 (703K)      
1 57517U 23114A   25138.13907448  .00000032  00000+0  00000+0 0  9994
2 57517  65.0809  85.9656 0012143 296.8379  63.0239  2.13103740 13849
COSMOS 2584 (704K)      
1 63130U 25042A   25138.02557855  .00000032  00000+0  00000+0 0  9995
2 63130  64.8624  86.2589 0006899 234.0539 125.8674  2.13103773  1620
